CCSDS_OMM_VERS = 2.0
CREATION_DATE  = 
ORIGINATOR     = 

OBJECT_NAME    = UNKNOWN
OBJECT_ID      = 
CENTER_NAME    = EARTH
REF_FRAME      = TEME
TIME_SYSTEM    = UTC
MEAN_ELEMENT_THEORY = SGP/SGP4

EPOCH          = 2025-12-11T07:48:57.517344
MEAN_MOTION    = 12.33743266
ECCENTRICITY   = .0367852
INCLINATION    = 82.3841
RA_OF_ASC_NODE = 316.1260
ARG_OF_PERICENTER = 4.3763
MEAN_ANOMALY   = 356.0382

EPHEMERIS_TYPE = 0
CLASSIFICATION_TYPE = U
NORAD_CAT_ID   = 270258
ELEMENT_SET_NO = 999
REV_AT_EPOCH   = 25992
BSTAR          = .73549946E-1
MEAN_MOTION_DOT = .11397E-3
MEAN_MOTION_DDOT = 0

CCSDS_OMM_VERS = 2.0
CREATION_DATE  = 
ORIGINATOR     = 

OBJECT_NAME    = UNKNOWN
OBJECT_ID      = 
CENTER_NAME    = EARTH
REF_FRAME      = TEME
TIME_SYSTEM    = UTC
MEAN_ELEMENT_THEORY = SGP/SGP4

EPOCH          = 2025-12-06T20:01:17.379552
MEAN_MOTION    = 12.83342006
ECCENTRICITY   = .03739859
INCLINATION    = 63.2103
RA_OF_ASC_NODE = 24.9543
ARG_OF_PERICENTER = 20.7494
MEAN_ANOMALY   = 340.8236

EPHEMERIS_TYPE = 0
CLASSIFICATION_TYPE = U
NORAD_CAT_ID   = 270261
ELEMENT_SET_NO = 999
REV_AT_EPOCH   = 26948
BSTAR          = .59485481E-3
MEAN_MOTION_DOT = .114E-5
MEAN_MOTION_DDOT = 0

CCSDS_OMM_VERS = 2.0
CREATION_DATE  = 
ORIGINATOR     = 

OBJECT_NAME    = UNKNOWN
OBJECT_ID      = 
CENTER_NAME    = EARTH
REF_FRAME      = TEME
TIME_SYSTEM    = UTC
MEAN_ELEMENT_THEORY = SGP/SGP4

EPOCH          = 2025-12-02T19:06:54.617472
MEAN_MOTION    = 12.95561846
ECCENTRICITY   = .00300109
INCLINATION    = 90.2416
RA_OF_ASC_NODE = 4.8730
ARG_OF_PERICENTER = 332.6053
MEAN_ANOMALY   = 27.3483

EPHEMERIS_TYPE = 0
CLASSIFICATION_TYPE = U
NORAD_CAT_ID   = 270262
ELEMENT_SET_NO = 999
REV_AT_EPOCH   = 27084
BSTAR          = .37229148E-3
MEAN_MOTION_DOT = .113E-5
MEAN_MOTION_DDOT = 0

CCSDS_OMM_VERS = 2.0
CREATION_DATE  = 
ORIGINATOR     = 

OBJECT_NAME    = UNKNOWN
OBJECT_ID      = 
CENTER_NAME    = EARTH
REF_FRAME      = TEME
TIME_SYSTEM    = UTC
MEAN_ELEMENT_THEORY = SGP/SGP4

EPOCH          = 2025-12-14T15:09:59.465664
MEAN_MOTION    = 14.34853110
ECCENTRICITY   = .0032855
INCLINATION    = 86.4347
RA_OF_ASC_NODE = 118.4477
ARG_OF_PERICENTER = 338.9892
MEAN_ANOMALY   = 20.9952

EPHEMERIS_TYPE = 0
CLASSIFICATION_TYPE = U
NORAD_CAT_ID   = 270263
ELEMENT_SET_NO = 999
REV_AT_EPOCH   = 30312
BSTAR          = .44410117E-3
MEAN_MOTION_DOT = .1287E-4
MEAN_MOTION_DDOT = 0

CCSDS_OMM_VERS = 2.0
CREATION_DATE  = 
ORIGINATOR     = 

OBJECT_NAME    = UNKNOWN
OBJECT_ID      = 
CENTER_NAME    = EARTH
REF_FRAME      = TEME
TIME_SYSTEM    = UTC
MEAN_ELEMENT_THEORY = SGP/SGP4

EPOCH          = 2025-12-14T12:15:10.284480
MEAN_MOTION    = 13.15439048
ECCENTRICITY   = .00222759
INCLINATION    = 82.5465
RA_OF_ASC_NODE = 275.3971
ARG_OF_PERICENTER = 3.5856
MEAN_ANOMALY   = 356.5421

EPHEMERIS_TYPE = 0
CLASSIFICATION_TYPE = U
NORAD_CAT_ID   = 270264
ELEMENT_SET_NO = 999
REV_AT_EPOCH   = 27637
BSTAR          = .29202279E-2
MEAN_MOTION_DOT = .1111E-4
MEAN_MOTION_DDOT = 0

CCSDS_OMM_VERS = 2.0
CREATION_DATE  = 
ORIGINATOR     = 

OBJECT_NAME    = UNKNOWN
OBJECT_ID      = 
CENTER_NAME    = EARTH
REF_FRAME      = TEME
TIME_SYSTEM    = UTC
MEAN_ELEMENT_THEORY = SGP/SGP4

EPOCH          = 2025-12-11T10:18:18.980640
MEAN_MOTION    = 12.71679797
ECCENTRICITY   = .01428987
INCLINATION    = 82.4323
RA_OF_ASC_NODE = 233.8948
ARG_OF_PERICENTER = 242.9005
MEAN_ANOMALY   = 115.7454

EPHEMERIS_TYPE = 0
CLASSIFICATION_TYPE = U
NORAD_CAT_ID   = 270265
ELEMENT_SET_NO = 999
REV_AT_EPOCH   = 26542
BSTAR          = .25078215E-1
MEAN_MOTION_DOT = .5315E-4
MEAN_MOTION_DDOT = 0

CCSDS_OMM_VERS = 2.0
CREATION_DATE  = 
ORIGINATOR     = 

OBJECT_NAME    = UNKNOWN
OBJECT_ID      = 
CENTER_NAME    = EARTH
REF_FRAME      = TEME
TIME_SYSTEM    = UTC
MEAN_ELEMENT_THEORY = SGP/SGP4

EPOCH          = 2025-12-14T06:55:20.989632
MEAN_MOTION    = 12.96372469
ECCENTRICITY   = .00253493
INCLINATION    = 90.2378
RA_OF_ASC_NODE = 2.5865
ARG_OF_PERICENTER = 255.4636
MEAN_ANOMALY   = 104.3672

EPHEMERIS_TYPE = 0
CLASSIFICATION_TYPE = U
NORAD_CAT_ID   = 270267
ELEMENT_SET_NO = 999
REV_AT_EPOCH   = 27259
BSTAR          = .11762948E-2
MEAN_MOTION_DOT = .344E-5
MEAN_MOTION_DDOT = 0

CCSDS_OMM_VERS = 2.0
CREATION_DATE  = 
ORIGINATOR     = 

OBJECT_NAME    = UNKNOWN
OBJECT_ID      = 
CENTER_NAME    = EARTH
REF_FRAME      = TEME
TIME_SYSTEM    = UTC
MEAN_ELEMENT_THEORY = SGP/SGP4

EPOCH          = 2025-12-14T07:15:02.277216
MEAN_MOTION    = 12.98334083
ECCENTRICITY   = .00291791
INCLINATION    = 90.2401
RA_OF_ASC_NODE = 4.6848
ARG_OF_PERICENTER = 179.1646
MEAN_ANOMALY   = 180.9529

EPHEMERIS_TYPE = 0
CLASSIFICATION_TYPE = U
NORAD_CAT_ID   = 270268
ELEMENT_SET_NO = 999
REV_AT_EPOCH   = 27268
BSTAR          = -.75123402E-3
MEAN_MOTION_DOT = -.214E-5
MEAN_MOTION_DDOT = 0

CCSDS_OMM_VERS = 2.0
CREATION_DATE  = 
ORIGINATOR     = 

OBJECT_NAME    = UNKNOWN
OBJECT_ID      = 
CENTER_NAME    = EARTH
REF_FRAME      = TEME
TIME_SYSTEM    = UTC
MEAN_ELEMENT_THEORY = SGP/SGP4

EPOCH          = 2025-12-14T11:12:50.311872
MEAN_MOTION    = 13.30506944
ECCENTRICITY   = .0083265
INCLINATION    = 82.5824
RA_OF_ASC_NODE = 241.2731
ARG_OF_PERICENTER = 66.8081
MEAN_ANOMALY   = 294.1792

EPHEMERIS_TYPE = 0
CLASSIFICATION_TYPE = U
NORAD_CAT_ID   = 270269
ELEMENT_SET_NO = 999
REV_AT_EPOCH   = 27907
BSTAR          = .56402788E-3
MEAN_MOTION_DOT = .284E-5
MEAN_MOTION_DDOT = 0

CCSDS_OMM_VERS = 2.0
CREATION_DATE  = 
ORIGINATOR     = 

OBJECT_NAME    = UNKNOWN
OBJECT_ID      = 
CENTER_NAME    = EARTH
REF_FRAME      = TEME
TIME_SYSTEM    = UTC
MEAN_ELEMENT_THEORY = SGP/SGP4

EPOCH          = 2025-12-13T08:26:36.316608
MEAN_MOTION    = 12.58445563
ECCENTRICITY   = .01552887
INCLINATION    = 102.1536
RA_OF_ASC_NODE = 216.6405
ARG_OF_PERICENTER = 33.2212
MEAN_ANOMALY   = 327.8498

EPHEMERIS_TYPE = 0
CLASSIFICATION_TYPE = U
NORAD_CAT_ID   = 270271
ELEMENT_SET_NO = 999
REV_AT_EPOCH   = 26412
BSTAR          = .33213964E-2
MEAN_MOTION_DOT = .544E-5
MEAN_MOTION_DDOT = 0

CCSDS_OMM_VERS = 2.0
CREATION_DATE  = 
ORIGINATOR     = 

OBJECT_NAME    = UNKNOWN
OBJECT_ID      = 
CENTER_NAME    = EARTH
REF_FRAME      = TEME
TIME_SYSTEM    = UTC
MEAN_ELEMENT_THEORY = SGP/SGP4

EPOCH          = 2025-12-13T19:16:59.813184
MEAN_MOTION    = 12.98290136
ECCENTRICITY   = .00320902
INCLINATION    = 90.2465
RA_OF_ASC_NODE = 8.1433
ARG_OF_PERICENTER = 158.1940
MEAN_ANOMALY   = 202.0556

EPHEMERIS_TYPE = 0
CLASSIFICATION_TYPE = U
NORAD_CAT_ID   = 270274
ELEMENT_SET_NO = 999
REV_AT_EPOCH   = 27219
BSTAR          = .14049908E-2
MEAN_MOTION_DOT = .421E-5
MEAN_MOTION_DDOT = 0

CCSDS_OMM_VERS = 2.0
CREATION_DATE  = 
ORIGINATOR     = 

OBJECT_NAME    = UNKNOWN
OBJECT_ID      = 
CENTER_NAME    = EARTH
REF_FRAME      = TEME
TIME_SYSTEM    = UTC
MEAN_ELEMENT_THEORY = SGP/SGP4

EPOCH          = 2025-12-12T20:04:03.220032
MEAN_MOTION    = 13.91072067
ECCENTRICITY   = .03089171
INCLINATION    = 86.4320
RA_OF_ASC_NODE = 24.8641
ARG_OF_PERICENTER = 198.5812
MEAN_ANOMALY   = 160.3882

EPHEMERIS_TYPE = 0
CLASSIFICATION_TYPE = U
NORAD_CAT_ID   = 270275
ELEMENT_SET_NO = 999
REV_AT_EPOCH   = 1749
BSTAR          = .62092186E-2
MEAN_MOTION_DOT = .11517E-3
MEAN_MOTION_DDOT = 0

CCSDS_OMM_VERS = 2.0
CREATION_DATE  = 
ORIGINATOR     = 

OBJECT_NAME    = UNKNOWN
OBJECT_ID      = 
CENTER_NAME    = EARTH
REF_FRAME      = TEME
TIME_SYSTEM    = UTC
MEAN_ELEMENT_THEORY = SGP/SGP4

EPOCH          = 2025-12-09T05:44:38.552640
MEAN_MOTION    = 11.12890732
ECCENTRICITY   = .08019945
INCLINATION    = 102.3981
RA_OF_ASC_NODE = 151.7545
ARG_OF_PERICENTER = 117.8385
MEAN_ANOMALY   = 250.6194

EPHEMERIS_TYPE = 0
CLASSIFICATION_TYPE = U
NORAD_CAT_ID   = 270276
ELEMENT_SET_NO = 999
REV_AT_EPOCH   = 23292
BSTAR          = -.16716999E-1
MEAN_MOTION_DOT = -.977E-5
MEAN_MOTION_DDOT = 0

CCSDS_OMM_VERS = 2.0
CREATION_DATE  = 
ORIGINATOR     = 

OBJECT_NAME    = UNKNOWN
OBJECT_ID      = 
CENTER_NAME    = EARTH
REF_FRAME      = TEME
TIME_SYSTEM    = UTC
MEAN_ELEMENT_THEORY = SGP/SGP4

EPOCH          = 2025-12-14T20:13:31.443456
MEAN_MOTION    = 14.43007601
ECCENTRICITY   = .02611635
INCLINATION    = 34.0994
RA_OF_ASC_NODE = 178.3823
ARG_OF_PERICENTER = 357.5804
MEAN_ANOMALY   = 2.3601

EPHEMERIS_TYPE = 0
CLASSIFICATION_TYPE = U
NORAD_CAT_ID   = 270278
ELEMENT_SET_NO = 999
REV_AT_EPOCH   = 29584
BSTAR          = .16497701E-2
MEAN_MOTION_DOT = .8498E-4
MEAN_MOTION_DDOT = 0

CCSDS_OMM_VERS = 2.0
CREATION_DATE  = 
ORIGINATOR     = 

OBJECT_NAME    = UNKNOWN
OBJECT_ID      = 
CENTER_NAME    = EARTH
REF_FRAME      = TEME
TIME_SYSTEM    = UTC
MEAN_ELEMENT_THEORY = SGP/SGP4

EPOCH          = 2025-12-01T07:08:49.304832
MEAN_MOTION    = 12.93760930
ECCENTRICITY   = .00257499
INCLINATION    = 90.2273
RA_OF_ASC_NODE = 359.7372
ARG_OF_PERICENTER = 331.5665
MEAN_ANOMALY   = 28.4048

EPHEMERIS_TYPE = 0
CLASSIFICATION_TYPE = U
NORAD_CAT_ID   = 270279
ELEMENT_SET_NO = 999
REV_AT_EPOCH   = 26826
BSTAR          = .12946107E-2
MEAN_MOTION_DOT = .364E-5
MEAN_MOTION_DDOT = 0

CCSDS_OMM_VERS = 2.0
CREATION_DATE  = 
ORIGINATOR     = 

OBJECT_NAME    = UNKNOWN
OBJECT_ID      = 
CENTER_NAME    = EARTH
REF_FRAME      = TEME
TIME_SYSTEM    = UTC
MEAN_ELEMENT_THEORY = SGP/SGP4

EPOCH          = 2025-12-13T18:46:24.128544
MEAN_MOTION    = 12.96941248
ECCENTRICITY   = .00299065
INCLINATION    = 90.2367
RA_OF_ASC_NODE = 3.1367
ARG_OF_PERICENTER = 134.9273
MEAN_ANOMALY   = 225.4281

EPHEMERIS_TYPE = 0
CLASSIFICATION_TYPE = U
NORAD_CAT_ID   = 270280
ELEMENT_SET_NO = 999
REV_AT_EPOCH   = 27068
BSTAR          = -.99374532E-4
MEAN_MOTION_DOT = -.21E-6
MEAN_MOTION_DDOT = 0

